ATLAS CENTAUR 2         
1 00694U 63047A   26112.94113654  .00002590  00000+0  30660-3 0  9997
2 00694  30.3529 308.3070 0546658 110.3508 255.6666 14.12276713137883
THOR AGENA D R/B        
1 00733U 64002A   26113.03733367  .00000126  00000+0  62018-4 0  9999
2 00733  99.1192 128.7882 0033766 128.3757 232.0467 14.34041718244658
SL-3 R/B                
1 00877U 64053B   26113.31048080  .00000087  00000+0  41101-4 0  9992
2 00877  65.0772 200.4122 0081089 278.2232  80.9678 14.61397578273319
SL-8 R/B                
1 02802U 67045B   26113.14069881  .00000196  00000+0  61921-4 0  9992
2 02802  74.0100 265.0669 0065172 261.8619  97.5142 14.45652889 95446
SL-8 R/B                
1 03230U 68040B   26113.02787824  .00001947  00000+0  14494-3 0  9992
2 03230  74.0311 223.0700 0023938  28.8082 331.4422 15.03541920 96670
OAO 2                   
1 03597U 68110A   26113.00372773  .00000152  00000+0  46148-4 0  9996
2 03597  34.9947  17.7981 0005849 199.4910 160.5558 14.47330084 25522
ISIS 1                  
1 03669U 69009A   26113.05691681  .00000062  00000+0  38085-4 0  9992
2 03669  88.4452 150.4577 1707140 359.6414   0.3297 11.30423768353544
SERT 2                  
1 04327U 70009A   26113.26881942  .00000013  00000+0  74926-4 0  9990
2 04327  99.2813  53.9374 0005714  56.7844 103.3382 13.58735140785942
SL-3 R/B                
1 05118U 71028B   26113.21066189  .00031588  00000+0  31955-3 0  9999
2 05118  81.2364 356.8847 0016546 119.3633 240.9277 15.64947930995620
ASTEX 1                 
1 05560U 71089A   26113.10257489  .00000310  00000+0  78853-4 0  9998
2 05560  92.7052 166.1047 0013391 298.5595  61.4262 14.50810336868743
SL-8 R/B                
1 05730U 71119B   26112.89515313  .00008005  00000+0  41656-3 0  9998
2 05730  73.8848  93.0364 0545483  50.3187 314.4769 14.38600001661845
OAO 3 (COPERNICUS)      
1 06153U 72065A   26113.20291183  .00000220  00000+0  49358-4 0  9990
2 06153  35.0066  43.6945 0006575 170.8801 334.5351 14.60029385852700
ATLAS CENTAUR R/B       
1 06155U 72065B   26113.15028985  .00000897  00000+0  12520-3 0  9994
2 06155  35.0024  45.1679 0033148  23.3877 336.8324 14.77802139847846
SL-8 R/B                
1 08459U 75112B   26112.88149348  .00000063  00000+0  29380-4 0  9993
2 08459  74.0595 297.6186 0015324  14.3869 345.7718 14.38224359638220
SL-3 R/B                
1 10114U 77057B   26113.24619932  .00009476  00000+0  19153-3 0  9999
2 10114  97.5825 287.1846 0008335 119.3187 240.8896 15.46671008675216
SEASAT 1                
1 10967U 78064A   26113.11160894  .00000192  00000+0  92175-4 0  9990
2 10967 108.0082 218.7025 0002789 262.0805  98.0024 14.46196957512933
SL-14 R/B               
1 11267U 79011B   26113.24814017  .00000416  00000+0  38516-4 0  9992
2 11267  82.5250  54.2812 0014363 268.8207  91.1367 14.91963594535420
