[{"OBJECT_NAME":"ATLAS CENTAUR 2","OBJECT_ID":"1963-047A","EPOCH":"2026-04-22T22:35:14.197056","MEAN_MOTION":14.12276713,"ECCENTRICITY":0.05466582,"INCLINATION":30.3529,"RA_OF_ASC_NODE":308.307,"ARG_OF_PERICENTER":110.3508,"MEAN_ANOMALY":255.6666,"EPHEMERIS_TYPE":0,"CLASSIFICATION_TYPE":"U","NORAD_CAT_ID":694,"ELEMENT_SET_NO":999,"REV_AT_EPOCH":13788,"BSTAR":0.00030659729,"MEAN_MOTION_DOT":2.59e-5,"MEAN_MOTION_DDOT":0},{"OBJECT_NAME":"THOR AGENA D R/B","OBJECT_ID":"1964-002A","EPOCH":"2026-04-23T00:53:45.629088","MEAN_MOTION":14.34041718,"ECCENTRICITY":0.00337666,"INCLINATION":99.1192,"RA_OF_ASC_NODE":128.7882,"ARG_OF_PERICENTER":128.3757,"MEAN_ANOMALY":232.0467,"EPHEMERIS_TYPE":0,"CLASSIFICATION_TYPE":"U","NORAD_CAT_ID":733,"ELEMENT_SET_NO":999,"REV_AT_EPOCH":24465,"BSTAR":6.2017717e-5,"MEAN_MOTION_DOT":1.26e-6,"MEAN_MOTION_DDOT":0},{"OBJECT_NAME":"SL-3 R/B","OBJECT_ID":"1964-053B","EPOCH":"2026-04-23T07:27:05.541120","MEAN_MOTION":14.61397578,"ECCENTRICITY":0.00810899,"INCLINATION":65.0772,"RA_OF_ASC_NODE":200.4122,"ARG_OF_PERICENTER":278.2232,"MEAN_ANOMALY":80.9678,"EPHEMERIS_TYPE":0,"CLASSIFICATION_TYPE":"U","NORAD_CAT_ID":877,"ELEMENT_SET_NO":999,"REV_AT_EPOCH":27331,"BSTAR":4.1101162e-5,"MEAN_MOTION_DOT":8.7e-7,"MEAN_MOTION_DDOT":0},{"OBJECT_NAME":"SL-8 R/B","OBJECT_ID":"1967-045B","EPOCH":"2026-04-23T03:22:36.377184","MEAN_MOTION":14.45652889,"ECCENTRICITY":0.00651724,"INCLINATION":74.01,"RA_OF_ASC_NODE":265.0669,"ARG_OF_PERICENTER":261.8619,"MEAN_ANOMALY":97.5142,"EPHEMERIS_TYPE":0,"CLASSIFICATION_TYPE":"U","NORAD_CAT_ID":2802,"ELEMENT_SET_NO":999,"REV_AT_EPOCH":9544,"BSTAR":6.1920952e-5,"MEAN_MOTION_DOT":1.96e-6,"MEAN_MOTION_DDOT":0},{"OBJECT_NAME":"SL-8 R/B","OBJECT_ID":"1968-040B","EPOCH":"2026-04-23T00:40:08.679936","MEAN_MOTION":15.0354192,"ECCENTRICITY":0.00239382,"INCLINATION":74.0311,"RA_OF_ASC_NODE":223.07,"ARG_OF_PERICENTER":28.8082,"MEAN_ANOMALY":331.4422,"EPHEMERIS_TYPE":0,"CLASSIFICATION_TYPE":"U","NORAD_CAT_ID":3230,"ELEMENT_SET_NO":999,"REV_AT_EPOCH":9667,"BSTAR":0.00014494153,"MEAN_MOTION_DOT":1.947e-5,"MEAN_MOTION_DDOT":0},{"OBJECT_NAME":"OAO 2","OBJECT_ID":"1968-110A","EPOCH":"2026-04-23T00:05:22.075872","MEAN_MOTION":14.47330084,"ECCENTRICITY":0.00058494,"INCLINATION":34.9947,"RA_OF_ASC_NODE":17.7981,"ARG_OF_PERICENTER":199.491,"MEAN_ANOMALY":160.5558,"EPHEMERIS_TYPE":0,"CLASSIFICATION_TYPE":"U","NORAD_CAT_ID":3597,"ELEMENT_SET_NO":999,"REV_AT_EPOCH":2552,"BSTAR":4.6147535e-5,"MEAN_MOTION_DOT":1.52e-6,"MEAN_MOTION_DDOT":0},{"OBJECT_NAME":"ISIS 1","OBJECT_ID":"1969-009A","EPOCH":"2026-04-23T01:21:57.612384","MEAN_MOTION":11.30423768,"ECCENTRICITY":0.17071408,"INCLINATION":88.4452,"RA_OF_ASC_NODE":150.4577,"ARG_OF_PERICENTER":359.6414,"MEAN_ANOMALY":0.3297,"EPHEMERIS_TYPE":0,"CLASSIFICATION_TYPE":"U","NORAD_CAT_ID":3669,"ELEMENT_SET_NO":999,"REV_AT_EPOCH":35354,"BSTAR":3.8085027e-5,"MEAN_MOTION_DOT":6.2e-7,"MEAN_MOTION_DDOT":0},{"OBJECT_NAME":"SERT 2","OBJECT_ID":"1970-009A","EPOCH":"2026-04-23T06:27:05.997888","MEAN_MOTION":13.5873514,"ECCENTRICITY":0.00057148,"INCLINATION":99.2813,"RA_OF_ASC_NODE":53.9374,"ARG_OF_PERICENTER":56.7844,"MEAN_ANOMALY":103.3382,"EPHEMERIS_TYPE":0,"CLASSIFICATION_TYPE":"U","NORAD_CAT_ID":4327,"ELEMENT_SET_NO":999,"REV_AT_EPOCH":78594,"BSTAR":7.4926133e-5,"MEAN_MOTION_DOT":1.3e-7,"MEAN_MOTION_DDOT":0},{"OBJECT_NAME":"SL-3 R/B","OBJECT_ID":"1971-028B","EPOCH":"2026-04-23T05:03:21.187296","MEAN_MOTION":15.6494793,"ECCENTRICITY":0.00165465,"INCLINATION":81.2364,"RA_OF_ASC_NODE":356.8847,"ARG_OF_PERICENTER":119.3633,"MEAN_ANOMALY":240.9277,"EPHEMERIS_TYPE":0,"CLASSIFICATION_TYPE":"U","NORAD_CAT_ID":5118,"ELEMENT_SET_NO":999,"REV_AT_EPOCH":99562,"BSTAR":0.00031955434,"MEAN_MOTION_DOT":0.00031588,"MEAN_MOTION_DDOT":0},{"OBJECT_NAME":"ASTEX 1","OBJECT_ID":"1971-089A","EPOCH":"2026-04-23T02:27:42.470496","MEAN_MOTION":14.50810336,"ECCENTRICITY":0.00133919,"INCLINATION":92.7052,"RA_OF_ASC_NODE":166.1047,"ARG_OF_PERICENTER":298.5595,"MEAN_ANOMALY":61.4262,"EPHEMERIS_TYPE":0,"CLASSIFICATION_TYPE":"U","NORAD_CAT_ID":5560,"ELEMENT_SET_NO":999,"REV_AT_EPOCH":86874,"BSTAR":7.8853497e-5,"MEAN_MOTION_DOT":3.1e-6,"MEAN_MOTION_DDOT":0},{"OBJECT_NAME":"SL-8 R/B","OBJECT_ID":"1971-119B","EPOCH":"2026-04-22T21:29:01.230432","MEAN_MOTION":14.38600001,"ECCENTRICITY":0.0545483,"INCLINATION":73.8848,"RA_OF_ASC_NODE":93.0364,"ARG_OF_PERICENTER":50.3187,"MEAN_ANOMALY":314.4769,"EPHEMERIS_TYPE":0,"CLASSIFICATION_TYPE":"U","NORAD_CAT_ID":5730,"ELEMENT_SET_NO":999,"REV_AT_EPOCH":66184,"BSTAR":0.00041656,"MEAN_MOTION_DOT":8.005e-5,"MEAN_MOTION_DDOT":0},{"OBJECT_NAME":"OAO 3 (COPERNICUS)","OBJECT_ID":"1972-065A","EPOCH":"2026-04-23T04:52:11.582112","MEAN_MOTION":14.60029385,"ECCENTRICITY":0.00065752,"INCLINATION":35.0066,"RA_OF_ASC_NODE":43.6945,"ARG_OF_PERICENTER":170.8801,"MEAN_ANOMALY":334.5351,"EPHEMERIS_TYPE":0,"CLASSIFICATION_TYPE":"U","NORAD_CAT_ID":6153,"ELEMENT_SET_NO":999,"REV_AT_EPOCH":85270,"BSTAR":4.9358085e-5,"MEAN_MOTION_DOT":2.2e-6,"MEAN_MOTION_DDOT":0},{"OBJECT_NAME":"ATLAS CENTAUR R/B","OBJECT_ID":"1972-065B","EPOCH":"2026-04-23T03:36:25.043040","MEAN_MOTION":14.77802139,"ECCENTRICITY":0.00331483,"INCLINATION":35.0024,"RA_OF_ASC_NODE":45.1679,"ARG_OF_PERICENTER":23.3877,"MEAN_ANOMALY":336.8324,"EPHEMERIS_TYPE":0,"CLASSIFICATION_TYPE":"U","NORAD_CAT_ID":6155,"ELEMENT_SET_NO":999,"REV_AT_EPOCH":84784,"BSTAR":0.00012519639,"MEAN_MOTION_DOT":8.97e-6,"MEAN_MOTION_DDOT":0},{"OBJECT_NAME":"SL-8 R/B","OBJECT_ID":"1975-112B","EPOCH":"2026-04-22T21:09:21.036672","MEAN_MOTION":14.38224359,"ECCENTRICITY":0.0015324,"INCLINATION":74.0595,"RA_OF_ASC_NODE":297.6186,"ARG_OF_PERICENTER":14.3869,"MEAN_ANOMALY":345.7718,"EPHEMERIS_TYPE":0,"CLASSIFICATION_TYPE":"U","NORAD_CAT_ID":8459,"ELEMENT_SET_NO":999,"REV_AT_EPOCH":63822,"BSTAR":2.938e-5,"MEAN_MOTION_DOT":6.3e-7,"MEAN_MOTION_DDOT":0},{"OBJECT_NAME":"SL-3 R/B","OBJECT_ID":"1977-057B","EPOCH":"2026-04-23T05:54:31.621248","MEAN_MOTION":15.46671008,"ECCENTRICITY":0.00083352,"INCLINATION":97.5825,"RA_OF_ASC_NODE":287.1846,"ARG_OF_PERICENTER":119.3187,"MEAN_ANOMALY":240.8896,"EPHEMERIS_TYPE":0,"CLASSIFICATION_TYPE":"U","NORAD_CAT_ID":10114,"ELEMENT_SET_NO":999,"REV_AT_EPOCH":67521,"BSTAR":0.00019152763,"MEAN_MOTION_DOT":9.476e-5,"MEAN_MOTION_DDOT":0},{"OBJECT_NAME":"SEASAT 1","OBJECT_ID":"1978-064A","EPOCH":"2026-04-23T02:40:43.012416","MEAN_MOTION":14.46196957,"ECCENTRICITY":0.00027896,"INCLINATION":108.0082,"RA_OF_ASC_NODE":218.7025,"ARG_OF_PERICENTER":262.0805,"MEAN_ANOMALY":98.0024,"EPHEMERIS_TYPE":0,"CLASSIFICATION_TYPE":"U","NORAD_CAT_ID":10967,"ELEMENT_SET_NO":999,"REV_AT_EPOCH":51293,"BSTAR":9.2174781e-5,"MEAN_MOTION_DOT":1.92e-6,"MEAN_MOTION_DDOT":0},{"OBJECT_NAME":"SL-14 R/B","OBJECT_ID":"1979-011B","EPOCH":"2026-04-23T05:57:19.310688","MEAN_MOTION":14.91963594,"ECCENTRICITY":0.00143639,"INCLINATION":82.525,"RA_OF_ASC_NODE":54.2812,"ARG_OF_PERICENTER":268.8207,"MEAN_ANOMALY":91.1367,"EPHEMERIS_TYPE":0,"CLASSIFICATION_TYPE":"U","NORAD_CAT_ID":11267,"ELEMENT_SET_NO":999,"REV_AT_EPOCH":53542,"BSTAR":3.8515817e-5,"MEAN_MOTION_DOT":4.16e-6,"MEAN_MOTION_DDOT":0}]
